[{"OBJECT_NAME":"IRIDIUM 131","OBJECT_ID":"2017-083K","EPOCH":"2026-03-09T21:48:59.192352","MEAN_MOTION":14.34218122,"ECCENTRICITY":0.00022716,"INCLINATION":86.4027,"RA_OF_ASC_NODE":3.6576,"ARG_OF_PERICENTER":84.0859,"MEAN_ANOMALY":276.0595,"EPHEMERIS_TYPE":0,"CLASSIFICATION_TYPE":"U","NORAD_CAT_ID":43079,"ELEMENT_SET_NO":999,"REV_AT_EPOCH":42987,"BSTAR":0.00014526278,"MEAN_MOTION_DOT":4.27e-6,"MEAN_MOTION_DDOT":0},{"OBJECT_NAME":"NOAA 16 DEB","OBJECT_ID":"2000-055MJ","EPOCH":"2026-03-08T11:31:53.837472","MEAN_MOTION":14.29064531,"ECCENTRICITY":0.00214881,"INCLINATION":98.752,"RA_OF_ASC_NODE":160.6741,"ARG_OF_PERICENTER":301.0916,"MEAN_ANOMALY":58.8157,"EPHEMERIS_TYPE":0,"CLASSIFICATION_TYPE":"U","NORAD_CAT_ID":41510,"ELEMENT_SET_NO":999,"REV_AT_EPOCH":51500,"BSTAR":0.0021748823,"MEAN_MOTION_DOT":5.481e-5,"MEAN_MOTION_DDOT":0}]
